[
    {
        "Altitude(m)": 707211.3707596121,
        "Argument of Periapsis(deg)": 0.0011390121186627068,
        "Eccentricity": 0.0,
        "Inclination(deg)": 45.0,
        "Latitude(deg)": 44.72463977241769,
        "Longitude(deg)": 20.051068209047166,
        "Mean Anomaly(deg)": 82.97152166474811,
        "RAAN(deg)": 39.99892480585417,
        "Satellite Name": "Constellation 1 181",
        "Satellite Number": 181,
        "Semi-Major Axis(m)": 7083131.272910544,
        "Time(s)": 19
    },
    {
        "Altitude(m)": 707213.0423049473,
        "Argument of Periapsis(deg)": 0.0011989601249081123,
        "Eccentricity": 0.0,
        "Inclination(deg)": 45.0,
        "Latitude(deg)": 44.73200302482983,
        "Longitude(deg)": 20.131593188033023,
        "Mean Anomaly(deg)": 83.032222804998,
        "RAAN(deg)": 39.99886821668861,
        "Satellite Name": "Constellation 1 181",
        "Satellite Number": 181,
        "Semi-Major Axis(m)": 7083131.272910544,
        "Time(s)": 20
    },
    {
        "Altitude(m)": 707214.6997714754,
        "Argument of Periapsis(deg)": 0.001258908131153518,
        "Eccentricity": 0.0,
        "Inclination(deg)": 45.0,
        "Latitude(deg)": 44.73930356017008,
        "Longitude(deg)": 20.21213954068379,
        "Mean Anomaly(deg)": 83.0929239452479,
        "RAAN(deg)": 39.99881162752303,
        "Satellite Name": "Constellation 1 181",
        "Satellite Number": 181,
        "Semi-Major Axis(m)": 7083131.272910544,
        "Time(s)": 21
    },
    {
        "Altitude(m)": 707216.3431495229,
        "Argument of Periapsis(deg)": 0.0013188561373989236,
        "Eccentricity": 0.0,
        "Inclination(deg)": 45.0,
        "Latitude(deg)": 44.74654134696897,
        "Longitude(deg)": 20.292706926776088,
        "Mean Anomaly(deg)": 83.15362508549778,
        "RAAN(deg)": 39.99875503835747,
        "Satellite Name": "Constellation 1 181",
        "Satellite Number": 181,
        "Semi-Major Axis(m)": 7083131.272910544,
        "Time(s)": 22
    },
    {
        "Altitude(m)": 707217.9724294958,
        "Argument of Periapsis(deg)": 0.0013788041436443293,
        "Eccentricity": 0.0,
        "Inclination(deg)": 45.0,
        "Latitude(deg)": 44.75371635400882,
        "Longitude(deg)": 20.373295510015872,
        "Mean Anomaly(deg)": 83.2143262257477,
        "RAAN(deg)": 39.9986984491919,
        "Satellite Name": "Constellation 1 181",
        "Satellite Number": 181,
        "Semi-Major Axis(m)": 7083131.272910544,
        "Time(s)": 23
    },
    {
        "Altitude(m)": 707219.5876018836,
        "Argument of Periapsis(deg)": 0.001438752149889735,
        "Eccentricity": 0.0,
        "Inclination(deg)": 45.0,
        "Latitude(deg)": 44.760828550322586,
        "Longitude(deg)": 20.453904949458448,
        "Mean Anomaly(deg)": 83.27502736599756,
        "RAAN(deg)": 39.99864186002633,
        "Satellite Name": "Constellation 1 181",
        "Satellite Number": 181,
        "Semi-Major Axis(m)": 7083131.272910544,
        "Time(s)": 24
    },
    {
        "Altitude(m)": 707221.1886572643,
        "Argument of Periapsis(deg)": 0.0014987001561351404,
        "Eccentricity": 0.0,
        "Inclination(deg)": 45.0,
        "Latitude(deg)": 44.76787790519555,
        "Longitude(deg)": 20.53453507189952,
        "Mean Anomaly(deg)": 83.33572850624749,
        "RAAN(deg)": 39.99858527086076,
        "Satellite Name": "Constellation 1 181",
        "Satellite Number": 181,
        "Semi-Major Axis(m)": 7083131.272910544,
        "Time(s)": 25
    },
    {
        "Altitude(m)": 707222.7755862908,
        "Argument of Periapsis(deg)": 0.001558648162380546,
        "Eccentricity": 0.0,
        "Inclination(deg)": 45.0,
        "Latitude(deg)": 44.77486438816582,
        "Longitude(deg)": 20.615185703780494,
        "Mean Anomaly(deg)": 83.39642964649737,
        "RAAN(deg)": 39.99852868169519,
        "Satellite Name": "Constellation 1 181",
        "Satellite Number": 181,
        "Semi-Major Axis(m)": 7083131.272910544,
        "Time(s)": 26
    },
    {
        "Altitude(m)": 707224.3483797009,
        "Argument of Periapsis(deg)": 0.0016185961686259519,
        "Eccentricity": 0.0,
        "Inclination(deg)": 45.0,
        "Latitude(deg)": 44.78178796902478,
        "Longitude(deg)": 20.695856671191425,
        "Mean Anomaly(deg)": 83.45713078674729,
        "RAAN(deg)": 39.99847209252962,
        "Satellite Name": "Constellation 1 181",
        "Satellite Number": 181,
        "Semi-Major Axis(m)": 7083131.272910544,
        "Time(s)": 27
    },
    {
        "Altitude(m)": 707225.9070283199,
        "Argument of Periapsis(deg)": 0.0016785441748713573,
        "Eccentricity": 0.0,
        "Inclination(deg)": 45.0,
        "Latitude(deg)": 44.788648617817856,
        "Longitude(deg)": 20.77654779987357,
        "Mean Anomaly(deg)": 83.5178319269972,
        "RAAN(deg)": 39.99841550336406,
        "Satellite Name": "Constellation 1 181",
        "Satellite Number": 181,
        "Semi-Major Axis(m)": 7083131.272910544,
        "Time(s)": 28
    },
    {
        "Altitude(m)": 707227.4515230589,
        "Argument of Periapsis(deg)": 0.001738492181116763,
        "Eccentricity": 0.0,
        "Inclination(deg)": 45.0,
        "Latitude(deg)": 44.79544630484492,
        "Longitude(deg)": 20.857258915221713,
        "Mean Anomaly(deg)": 83.57853306724706,
        "RAAN(deg)": 39.998358914198484,
        "Satellite Name": "Constellation 1 181",
        "Satellite Number": 181,
        "Semi-Major Axis(m)": 7083131.272910544,
        "Time(s)": 29
    },
    {
        "Altitude(m)": 707228.9818549029,
        "Argument of Periapsis(deg)": 0.0017984401873621684,
        "Eccentricity": 0.0,
        "Inclination(deg)": 45.0,
        "Latitude(deg)": 44.80218100066084,
        "Longitude(deg)": 20.93798967419052,
        "Mean Anomaly(deg)": 83.639234207497,
        "RAAN(deg)": 39.99830232503291,
        "Satellite Name": "Constellation 1 181",
        "Satellite Number": 181,
        "Semi-Major Axis(m)": 7083131.272910544,
        "Time(s)": 30
    },
    {
        "Altitude(m)": 707230.4980149255,
        "Argument of Periapsis(deg)": 0.0018583881936075745,
        "Eccentricity": 0.0,
        "Inclination(deg)": 45.0,
        "Latitude(deg)": 44.80885267607702,
        "Longitude(deg)": 21.018740237684888,
        "Mean Anomaly(deg)": 83.69993534774687,
        "RAAN(deg)": 39.99824573586734,
        "Satellite Name": "Constellation 1 181",
        "Satellite Number": 181,
        "Semi-Major Axis(m)": 7083131.272910544,
        "Time(s)": 31
    },
    {
        "Altitude(m)": 707231.9999942802,
        "Argument of Periapsis(deg)": 0.0019183361998529795,
        "Eccentricity": 0.0,
        "Inclination(deg)": 45.0,
        "Latitude(deg)": 44.815461302160415,
        "Longitude(deg)": 21.099510261980594,
        "Mean Anomaly(deg)": 83.76063648799679,
        "RAAN(deg)": 39.998189146701776,
        "Satellite Name": "Constellation 1 181",
        "Satellite Number": 181,
        "Semi-Major Axis(m)": 7083131.272910544,
        "Time(s)": 32
    },
    {
        "Altitude(m)": 707233.4877842136,
        "Argument of Periapsis(deg)": 0.0019782842060983856,
        "Eccentricity": 0.0,
        "Inclination(deg)": 45.0,
        "Latitude(deg)": 44.822006850235134,
        "Longitude(deg)": 21.18029957111501,
        "Mean Anomaly(deg)": 83.82133762824667,
        "RAAN(deg)": 39.9981325575362,
        "Satellite Name": "Constellation 1 181",
        "Satellite Number": 181,
        "Semi-Major Axis(m)": 7083131.272910544,
        "Time(s)": 33
    },
    {
        "Altitude(m)": 707234.961376044,
        "Argument of Periapsis(deg)": 0.0020382322123437906,
        "Eccentricity": 0.0,
        "Inclination(deg)": 45.0,
        "Latitude(deg)": 44.82848929188291,
        "Longitude(deg)": 21.26110798879307,
        "Mean Anomaly(deg)": 83.88203876849659,
        "RAAN(deg)": 39.99807596837064,
        "Satellite Name": "Constellation 1 181",
        "Satellite Number": 181,
        "Semi-Major Axis(m)": 7083131.272910544,
        "Time(s)": 34
    },
    {
        "Altitude(m)": 707236.4207611794,
        "Argument of Periapsis(deg)": 0.002098180218589197,
        "Eccentricity": 0.0,
        "Inclination(deg)": 45.0,
        "Latitude(deg)": 44.834908598943485,
        "Longitude(deg)": 21.341935338389696,
        "Mean Anomaly(deg)": 83.94273990874645,
        "RAAN(deg)": 39.99801937920507,
        "Satellite Name": "Constellation 1 181",
        "Satellite Number": 181,
        "Semi-Major Axis(m)": 7083131.272910544,
        "Time(s)": 35
    },
    {
        "Altitude(m)": 707237.8659311114,
        "Argument of Periapsis(deg)": 0.002158128224834602,
        "Eccentricity": 0.0,
        "Inclination(deg)": 45.0,
        "Latitude(deg)": 44.84126474351528,
        "Longitude(deg)": 21.422781442953074,
        "Mean Anomaly(deg)": 84.00344104899638,
        "RAAN(deg)": 39.997962790039495,
        "Satellite Name": "Constellation 1 181",
        "Satellite Number": 181,
        "Semi-Major Axis(m)": 7083131.272910544,
        "Time(s)": 36
    },
    {
        "Altitude(m)": 707239.2968774129,
        "Argument of Periapsis(deg)": 0.002218076231080008,
        "Eccentricity": 0.0,
        "Inclination(deg)": 45.0,
        "Latitude(deg)": 44.84755769795572,
        "Longitude(deg)": 21.503645957109686,
        "Mean Anomaly(deg)": 84.06414218924628,
        "RAAN(deg)": 39.99790620087392,
        "Satellite Name": "Constellation 1 181",
        "Satellite Number": 181,
        "Semi-Major Axis(m)": 7083131.272910544,
        "Time(s)": 37
    }
]